FENGYUN 1C DEB          
1 30369U 99025ACG 17345.93174978 -.00000044  00000-0 -47213-7 0  9998
2 30369  98.8811  13.3861 0102028 194.7121 286.5456 14.10029530560404
